{"type": "FeatureCollection", "features": [{"type": "Feature", "geometry": {"type": "Polygon", "coordinates": [[[100.0, -10.0], [110.0, -10.0], [110.0, 0.0], [100.0, 0.0], [100.0, -10.0]], [[106.0397811405313, -2.980471845025277], [106.0220990194431, -3.243988255666446], [105.8465140657487, -3.377936788014082], [105.7002532900251, -3.301448290258979], [105.6458606594636, -3.221737476316327], [105.5260097073079, -3.270089322780923], [105.4458205852822, -3.269646520863002], [105.4492738236647, -3.189768302309613], [105.3344520137676, -3.091186331723918], [105.2941179340359, -3.089098758629455], [105.2781500163139, -3.097299662491803], [105.2279784494529, -3.097438138509097], [105.2246651539609, -3.041126846966993], [105.3096360292062, -2.989047760348533], [105.2902963348375, -2.951748058914295], [105.3101762362788, -2.921404247535496], [105.2933007953814, -2.87659168749826], [105.2722820510987, -2.892176229200017], [105.2552412835092, -2.862122643596053], [105.2837183368693, -2.838012684522681], [105.2875780845642, -2.813303535601503], [105.258066907937, -2.80020716875923], [105.2619020362015, -2.776680851631018], [105.2564510897779, -2.755166782703145], [105.2196052209448, -2.747316142308649], [105.2064091392593, -2.7309289089591], [105.216178629601, -2.716961334525348], [105.1940990786413, -2.656024462461096], [105.1761422081938, -2.651603254804711], [105.1786838437861, -2.635200273529021], [105.2065564503732, -2.632689591244159], [105.2059165372768, -2.551203736779649], [105.6226298882405, -2.397125151608992], [105.6133419863984, -2.607105325901989], [105.7740686607145, -2.691988537097908], [105.8129355492983, -2.912235755858151], [106.0397811405313, -2.980471845025277]]]}, "properties": {}}]}